{
  "type": "FeatureCollection",
  "features": [
    {
      "type": "Feature",
      "properties": {
        "norad_id": 31507,
        "name": "FENGYUN 1C DEB",
        "group": "fengyun-1c-debris",
        "lat": 75.66213231133992,
        "lon": -128.6814137860889,
        "alt_km": 631.4048709121525,
        "timestamp": "2025-12-10T16:57:11.919254+00:00",
        "meta_object_name": "FENGYUN 1C DEB",
        "meta_object_id": "1999-025BWW",
        "meta_epoch": "2025-12-10T08:18:36.119232",
        "meta_mean_motion": 14.52156686,
        "meta_eccentricity": 0.0117985,
        "meta_inclination": 98.1939,
        "meta_ra_of_asc_node": 16.6534,
        "meta_arg_of_pericenter": 85.5304,
        "meta_mean_anomaly": 294.2492,
        "meta_ephemeris_type": 0,
        "meta_classification_type": "U",
        "meta_norad_cat_id": 31507,
        "meta_element_set_no": 999,
        "meta_rev_at_epoch": 97986,
        "meta_bstar": 0.00062603,
        "meta_mean_motion_dot": 2.732e-05,
        "meta_mean_motion_ddot": 0,
        "tle_line1": "1 31507U 99025BWW 25344.34625138  .00002732  00000+0  62603-3 0  9994",
        "tle_line2": "2 31507  98.1939  16.6534 0117985  85.5304 294.2492 14.52156686979863"
      },
      "geometry": {
        "type": "Point",
        "coordinates": [
          -128.6814137860889,
          75.66213231133992
        ]
      }
    },
    {
      "type": "Feature",
      "properties": {
        "norad_id": 31508,
        "name": "FENGYUN 1C DEB",
        "group": "fengyun-1c-debris",
        "lat": 64.8839021889869,
        "lon": 74.27067583658078,
        "alt_km": 681.0662128656386,
        "timestamp": "2025-12-10T16:57:11.919264+00:00",
        "meta_object_name": "FENGYUN 1C DEB",
        "meta_object_id": "1999-025BWX",
        "meta_epoch": "2025-12-10T06:47:57.881184",
        "meta_mean_motion": 14.62386432,
        "meta_eccentricity": 0.0033202,
        "meta_inclination": 98.6307,
        "meta_ra_of_asc_node": 92.7339,
        "meta_arg_of_pericenter": 332.6085,
        "meta_mean_anomaly": 27.3363,
        "meta_ephemeris_type": 0,
        "meta_classification_type": "U",
        "meta_norad_cat_id": 31508,
        "meta_element_set_no": 999,
        "meta_rev_at_epoch": 96888,
        "meta_bstar": 0.0042082,
        "meta_mean_motion_dot": 0.00021458,
        "meta_mean_motion_ddot": 0,
        "tle_line1": "1 31508U 99025BWX 25344.28330881  .00021458  00000+0  42082-2 0  9990",
        "tle_line2": "2 31508  98.6307  92.7339 0033202 332.6085  27.3363 14.62386432968884"
      },
      "geometry": {
        "type": "Point",
        "coordinates": [
          74.27067583658078,
          64.8839021889869
        ]
      }
    },
    {
      "type": "Feature",
      "properties": {
        "norad_id": 31509,
        "name": "FENGYUN 1C DEB",
        "group": "fengyun-1c-debris",
        "lat": -65.58628063416924,
        "lon": -96.49099556648855,
        "alt_km": 781.4883935753751,
        "timestamp": "2025-12-10T16:57:11.919274+00:00",
        "meta_object_name": "FENGYUN 1C DEB",
        "meta_object_id": "1999-025BWY",
        "meta_epoch": "2025-12-09T19:06:34.741152",
        "meta_mean_motion": 13.94861523,
        "meta_eccentricity": 0.02042491,
        "meta_inclination": 99.0223,
        "meta_ra_of_asc_node": 103.1078,
        "meta_arg_of_pericenter": 226.4363,
        "meta_mean_anomaly": 131.9682,
        "meta_ephemeris_type": 0,
        "meta_classification_type": "U",
        "meta_norad_cat_id": 31509,
        "meta_element_set_no": 999,
        "meta_rev_at_epoch": 93921,
        "meta_bstar": 0.0037293587,
        "meta_mean_motion_dot": 5.917e-05,
        "meta_mean_motion_ddot": 0,
        "tle_line1": "1 31509U 99025BWY 25343.79623543  .00005917  00000+0  37294-2 0  9997",
        "tle_line2": "2 31509  99.0223 103.1078 0204249 226.4363 131.9682 13.94861523939218"
      },
      "geometry": {
        "type": "Point",
        "coordinates": [
          -96.49099556648855,
          -65.58628063416924
        ]
      }
    },
    {
      "type": "Feature",
      "properties": {
        "norad_id": 31510,
        "name": "FENGYUN 1C DEB",
        "group": "fengyun-1c-debris",
        "lat": 18.504362237595426,
        "lon": 166.8477787645148,
        "alt_km": 836.9658416273078,
        "timestamp": "2025-12-10T16:57:11.919285+00:00",
        "meta_object_name": "FENGYUN 1C DEB",
        "meta_object_id": "1999-025BWZ",
        "meta_epoch": "2025-12-09T19:07:16.023072",
        "meta_mean_motion": 14.24551707,
        "meta_eccentricity": 0.00372552,
        "meta_inclination": 98.5536,
        "meta_ra_of_asc_node": 343.0747,
        "meta_arg_of_pericenter": 340.3717,
        "meta_mean_anomaly": 198.3083,
        "meta_ephemeris_type": 0,
        "meta_classification_type": "U",
        "meta_norad_cat_id": 31510,
        "meta_element_set_no": 999,
        "meta_rev_at_epoch": 96445,
        "meta_bstar": 0.00089723092,
        "meta_mean_motion_dot": 2.054e-05,
        "meta_mean_motion_ddot": 0,
        "tle_line1": "1 31510U 99025BWZ 25343.79671323  .00002054  00000+0  89723-3 0  9992",
        "tle_line2": "2 31510  98.5536 343.0747 0037255 340.3717 198.3083 14.24551707964459"
      },
      "geometry": {
        "type": "Point",
        "coordinates": [
          166.8477787645148,
          18.504362237595426
        ]
      }
    },
    {
      "type": "Feature",
      "properties": {
        "norad_id": 31511,
        "name": "FENGYUN 1C DEB",
        "group": "fengyun-1c-debris",
        "lat": 52.54434918588425,
        "lon": -14.691624033522533,
        "alt_km": 813.9987042931343,
        "timestamp": "2025-12-10T16:57:11.919295+00:00",
        "meta_object_name": "FENGYUN 1C DEB",
        "meta_object_id": "1999-025BXA",
        "meta_epoch": "2025-12-09T21:51:20.287872",
        "meta_mean_motion": 14.28041477,
        "meta_eccentricity": 0.01096799,
        "meta_inclination": 99.067,
        "meta_ra_of_asc_node": 152.4515,
        "meta_arg_of_pericenter": 234.5791,
        "meta_mean_anomaly": 124.5108,
        "meta_ephemeris_type": 0,
        "meta_classification_type": "U",
        "meta_norad_cat_id": 31511,
        "meta_element_set_no": 999,
        "meta_rev_at_epoch": 95760,
        "meta_bstar": 0.0020254398,
        "meta_mean_motion_dot": 5.318e-05,
        "meta_mean_motion_ddot": 0,
        "tle_line1": "1 31511U 99025BXA 25343.91065148  .00005318  00000+0  20254-2 0  9998",
        "tle_line2": "2 31511  99.0670 152.4515 0109679 234.5791 124.5108 14.28041477957606"
      },
      "geometry": {
        "type": "Point",
        "coordinates": [
          -14.691624033522533,
          52.54434918588425
        ]
      }
    },
    {
      "type": "Feature",
      "properties": {
        "norad_id": 31512,
        "name": "FENGYUN 1C DEB",
        "group": "fengyun-1c-debris",
        "lat": -71.02759396239956,
        "lon": 33.225663090117806,
        "alt_km": 769.6935445163372,
        "timestamp": "2025-12-10T16:57:11.919305+00:00",
        "meta_object_name": "FENGYUN 1C DEB",
        "meta_object_id": "1999-025BXB",
        "meta_epoch": "2025-12-10T11:37:14.435040",
        "meta_mean_motion": 14.43807468,
        "meta_eccentricity": 0.014421,
        "meta_inclination": 98.8035,
        "meta_ra_of_asc_node": 239.7893,
        "meta_arg_of_pericenter": 153.7069,
        "meta_mean_anomaly": 23.5232,
        "meta_ephemeris_type": 0,
        "meta_classification_type": "U",
        "meta_norad_cat_id": 31512,
        "meta_element_set_no": 999,
        "meta_rev_at_epoch": 65469,
        "meta_bstar": 0.00060695,
        "meta_mean_motion_dot": 2.293e-05,
        "meta_mean_motion_ddot": 0,
        "tle_line1": "1 31512U 99025BXB 25344.48419485  .00002293  00000+0  60695-3 0  9992",
        "tle_line2": "2 31512  98.8035 239.7893 0144210 153.7069  23.5232 14.43807468654693"
      },
      "geometry": {
        "type": "Point",
        "coordinates": [
          33.225663090117806,
          -71.02759396239956
        ]
      }
    },
    {
      "type": "Feature",
      "properties": {
        "norad_id": 31513,
        "name": "FENGYUN 1C DEB",
        "group": "fengyun-1c-debris",
        "lat": -3.0975724721592583,
        "lon": -99.09800606253337,
        "alt_km": 774.2505702865683,
        "timestamp": "2025-12-10T16:57:11.919315+00:00",
        "meta_object_name": "FENGYUN 1C DEB",
        "meta_object_id": "1999-025BXC",
        "meta_epoch": "2025-11-25T02:15:23.832576",
        "meta_mean_motion": 14.32315683,
        "meta_eccentricity": 0.00282412,
        "meta_inclination": 98.8622,
        "meta_ra_of_asc_node": 65.435,
        "meta_arg_of_pericenter": 176.3464,
        "meta_mean_anomaly": 183.7931,
        "meta_ephemeris_type": 0,
        "meta_classification_type": "U",
        "meta_norad_cat_id": 31513,
        "meta_element_set_no": 999,
        "meta_rev_at_epoch": 72616,
        "meta_bstar": 0.0023967664,
        "meta_mean_motion_dot": 6.459e-05,
        "meta_mean_motion_ddot": 0,
        "tle_line1": "1 31513U 99025BXC 25329.09402584  .00006459  00000+0  23968-2 0  9994",
        "tle_line2": "2 31513  98.8622  65.4350 0028241 176.3464 183.7931 14.32315683726161"
      },
      "geometry": {
        "type": "Point",
        "coordinates": [
          -99.09800606253337,
          -3.0975724721592583
        ]
      }
    }
  ]
}